[{"OBJECT_NAME":"LEMUR-2-MONSON","OBJECT_ID":"2017-042Q","EPOCH":"2026-03-09T11:05:12.918048","MEAN_MOTION":15.24988734,"ECCENTRICITY":0.00066191,"INCLINATION":97.4034,"RA_OF_ASC_NODE":249.9036,"ARG_OF_PERICENTER":352.7862,"MEAN_ANOMALY":7.3279,"EPHEMERIS_TYPE":0,"CLASSIFICATION_TYPE":"U","NORAD_CAT_ID":42839,"ELEMENT_SET_NO":999,"REV_AT_EPOCH":47295,"BSTAR":0.00072200712,"MEAN_MOTION_DOT":0.00017976,"MEAN_MOTION_DDOT":0},{"OBJECT_NAME":"SATMAR","OBJECT_ID":"2025-135Z","EPOCH":"2026-03-09T20:30:41.171616","MEAN_MOTION":15.2332395,"ECCENTRICITY":8.237e-5,"INCLINATION":97.4487,"RA_OF_ASC_NODE":185.1397,"ARG_OF_PERICENTER":164.2564,"MEAN_ANOMALY":195.8698,"EPHEMERIS_TYPE":0,"CLASSIFICATION_TYPE":"U","NORAD_CAT_ID":64551,"ELEMENT_SET_NO":999,"REV_AT_EPOCH":3979,"BSTAR":0.00047484624,"MEAN_MOTION_DOT":0.0001121,"MEAN_MOTION_DDOT":0}]
