LEMUR-2-MONSON          
1 42839U 17042Q   26068.46195507  .00017976  00000+0  72201-3 0  9993
2 42839  97.4034 249.9036 0006619 352.7862   7.3279 15.24988734472959
SATMAR                  
1 64551U 25135Z   26068.85464318  .00011210  00000+0  47485-3 0  9993
2 64551  97.4487 185.1397 0000824 164.2564 195.8698 15.23323950 39795
